GLOBALSTAR M067         
1 32263U 07048A   24354.93636934 -.00000092  00000+0  41630-4 0  9995
2 32263  51.9701 200.4325 0001080  34.4873 106.2960 12.40662815787477
GLOBALSTAR M070         
1 32264U 07048B   24354.65771894 -.00000072  00000+0  17998-3 0  9997
2 32264  51.9767 315.4197 0000666  56.2587 122.3984 12.62308049790993
GLOBALSTAR M066         
1 32265U 07048C   24355.01192020 -.00000102  00000+0 -27364-4 0  9991
2 32265  51.9642 186.8158 0001693  81.4003  79.4402 12.42168694794053
GLOBALSTAR M068         
1 32266U 07048D   24354.73633230 -.00000076  00000+0  15384-3 0  9990
2 32266  51.9869 129.2764 0002012 105.2356  33.6315 12.62811724794888
GLOBALSTAR M079         
1 37188U 10054A   24355.15230480 -.00000084  00000+0  11069-3 0  9991
2 37188  52.0055 324.7987 0000157  22.8642  84.7302 12.62268380654527
GLOBALSTAR M074         
1 37189U 10054B   24354.92122034 -.00000089  00000+0  81269-4 0  9996
2 37189  52.0034 324.8507 0000549  41.7829 336.1530 12.62260282654425
GLOBALSTAR M076         
1 37190U 10054C   24354.94786610 -.00000084  00000+0  11226-3 0  9996
2 37190  52.0048 324.9260 0000477   8.9181   9.1826 12.62274887654145
GLOBALSTAR M077         
1 37191U 10054D   24354.86624277 -.00000061  00000+0  23936-3 0  9994
2 37191  52.0080 281.9806 0000710  55.1845  11.2951 12.62268482654508
